STARLINK-2209
1 47776U 21017BG  26090.74730092  .00092134  00000+0  18130-2 0  9994
2 47776  53.1589  98.6628 0003046  68.4329 291.7003 15.46511544281287
STARLINK-3151
1 49408U 21104A   26090.83335647  .01009000  00000+0  18129-1 0  9990
2 49408  53.2162 123.5163 0001321  72.3603 226.7666 15.46617761  5694
STARLINK-36828
1 67857U 26034H   26090.83335647 -.01889206  00000+0 -41454-1 0  9998
2 67857  53.1595 101.3489 0001235  65.2194  36.2034 15.46668887  5953
